{
  "type": "FeatureCollection",
  "features": [
    {
      "type": "Feature",
      "properties": {
        "norad_id": 41866,
        "name": "GOES 16",
        "group": "weather",
        "lat": -0.019296303461555357,
        "lon": 73.1207481343423,
        "alt_km": 35799.117000416125,
        "timestamp": "2025-12-26T05:31:12.141917+00:00",
        "meta_object_name": "GOES 16",
        "meta_object_id": "2016-071A",
        "meta_epoch": "2025-12-25T12:34:07.531392",
        "meta_mean_motion": 1.00271753,
        "meta_eccentricity": 0.0003194,
        "meta_inclination": 0.0771,
        "meta_ra_of_asc_node": 101.2901,
        "meta_arg_of_pericenter": 167.4094,
        "meta_mean_anomaly": 269.4528,
        "meta_ephemeris_type": 0,
        "meta_classification_type": "U",
        "meta_norad_cat_id": 41866,
        "meta_element_set_no": 999,
        "meta_rev_at_epoch": 3336,
        "meta_bstar": 0,
        "meta_mean_motion_dot": -7e-07,
        "meta_mean_motion_ddot": 0,
        "tle_line1": "1 41866U 16071A   25359.52369828 -.00000070  00000+0  00000+0 0  9993",
        "tle_line2": "2 41866   0.0771 101.2901 0003194 167.4094 269.4528  1.00271753 33361"
      },
      "geometry": {
        "type": "Point",
        "coordinates": [
          73.1207481343423,
          -0.019296303461555357
        ]
      }
    },
    {
      "type": "Feature",
      "properties": {
        "norad_id": 41882,
        "name": "FENGYUN 4A",
        "group": "weather",
        "lat": -1.2057475324721791,
        "lon": -58.615625217367004,
        "alt_km": 35784.10889990318,
        "timestamp": "2025-12-26T05:31:12.141929+00:00",
        "meta_object_name": "FENGYUN 4A",
        "meta_object_id": "2016-077A",
        "meta_epoch": "2025-12-25T23:06:50.594112",
        "meta_mean_motion": 1.00262666,
        "meta_eccentricity": 0.00045267,
        "meta_inclination": 1.8805,
        "meta_ra_of_asc_node": 82.2609,
        "meta_arg_of_pericenter": 143.2383,
        "meta_mean_anomaly": 339.511,
        "meta_ephemeris_type": 0,
        "meta_classification_type": "U",
        "meta_norad_cat_id": 41882,
        "meta_element_set_no": 999,
        "meta_rev_at_epoch": 3319,
        "meta_bstar": 0,
        "meta_mean_motion_dot": -3.36e-06,
        "meta_mean_motion_ddot": 0,
        "tle_line1": "1 41882U 16077A   25359.96308558 -.00000336  00000+0  00000+0 0  9993",
        "tle_line2": "2 41882   1.8805  82.2609 0004526 143.2383 339.5110  1.00262666 33192"
      },
      "geometry": {
        "type": "Point",
        "coordinates": [
          -58.615625217367004,
          -1.2057475324721791
        ]
      }
    },
    {
      "type": "Feature",
      "properties": {
        "norad_id": 41884,
        "name": "CYGFM05",
        "group": "weather",
        "lat": 30.365167472523655,
        "lon": 15.966537109978782,
        "alt_km": 420.21775743031776,
        "timestamp": "2025-12-26T05:31:12.141940+00:00",
        "meta_object_name": "CYGFM05",
        "meta_object_id": "2016-078A",
        "meta_epoch": "2025-12-25T06:02:20.349024",
        "meta_mean_motion": 15.48102711,
        "meta_eccentricity": 0.0010557,
        "meta_inclination": 34.9604,
        "meta_ra_of_asc_node": 325.3743,
        "meta_arg_of_pericenter": 290.9758,
        "meta_mean_anomaly": 68.9834,
        "meta_ephemeris_type": 0,
        "meta_classification_type": "U",
        "meta_norad_cat_id": 41884,
        "meta_element_set_no": 999,
        "meta_rev_at_epoch": 50170,
        "meta_bstar": 0.00038157,
        "meta_mean_motion_dot": 0.00020682,
        "meta_mean_motion_ddot": 0,
        "tle_line1": "1 41884U 16078A   25359.25162441  .00020682  00000+0  38157-3 0  9990",
        "tle_line2": "2 41884  34.9604 325.3743 0010557 290.9758  68.9834 15.48102711501709"
      },
      "geometry": {
        "type": "Point",
        "coordinates": [
          15.966537109978782,
          30.365167472523655
        ]
      }
    },
    {
      "type": "Feature",
      "properties": {
        "norad_id": 41885,
        "name": "CYGFM04",
        "group": "weather",
        "lat": 33.71923015590295,
        "lon": 6.330309521934821,
        "alt_km": 409.99104322889434,
        "timestamp": "2025-12-26T05:31:12.141951+00:00",
        "meta_object_name": "CYGFM04",
        "meta_object_id": "2016-078B",
        "meta_epoch": "2025-12-25T21:28:13.816704",
        "meta_mean_motion": 15.50926852,
        "meta_eccentricity": 0.00090003,
        "meta_inclination": 34.9347,
        "meta_ra_of_asc_node": 295.5633,
        "meta_arg_of_pericenter": 320.8197,
        "meta_mean_anomaly": 39.1873,
        "meta_ephemeris_type": 0,
        "meta_classification_type": "U",
        "meta_norad_cat_id": 41885,
        "meta_element_set_no": 999,
        "meta_rev_at_epoch": 50198,
        "meta_bstar": 0.00038113009,
        "meta_mean_motion_dot": 0.00022827,
        "meta_mean_motion_ddot": 0,
        "tle_line1": "1 41885U 16078B   25359.89460436  .00022827  00000+0  38113-3 0  9991",
        "tle_line2": "2 41885  34.9347 295.5633 0009000 320.8197  39.1873 15.50926852501987"
      },
      "geometry": {
        "type": "Point",
        "coordinates": [
          6.330309521934821,
          33.71923015590295
        ]
      }
    },
    {
      "type": "Feature",
      "properties": {
        "norad_id": 41886,
        "name": "CYGFM02",
        "group": "weather",
        "lat": 12.869121091519064,
        "lon": 92.4107526517015,
        "alt_km": 413.9472012277847,
        "timestamp": "2025-12-26T05:31:12.141962+00:00",
        "meta_object_name": "CYGFM02",
        "meta_object_id": "2016-078C",
        "meta_epoch": "2025-12-25T22:40:22.678752",
        "meta_mean_motion": 15.52349376,
        "meta_eccentricity": 0.00106136,
        "meta_inclination": 34.9436,
        "meta_ra_of_asc_node": 293.3868,
        "meta_arg_of_pericenter": 322.9815,
        "meta_mean_anomaly": 37.0175,
        "meta_ephemeris_type": 0,
        "meta_classification_type": "U",
        "meta_norad_cat_id": 41886,
        "meta_element_set_no": 999,
        "meta_rev_at_epoch": 50212,
        "meta_bstar": 0.00038418643,
        "meta_mean_motion_dot": 0.0002424,
        "meta_mean_motion_ddot": 0,
        "tle_line1": "1 41886U 16078C   25359.94470693  .00024240  00000+0  38419-3 0  9994",
        "tle_line2": "2 41886  34.9436 293.3868 0010613 322.9815  37.0175 15.52349376502126"
      },
      "geometry": {
        "type": "Point",
        "coordinates": [
          92.4107526517015,
          12.869121091519064
        ]
      }
    },
    {
      "type": "Feature",
      "properties": {
        "norad_id": 41887,
        "name": "CYGFM01",
        "group": "weather",
        "lat": 23.973851514278355,
        "lon": 101.6732252415656,
        "alt_km": 422.1368638498061,
        "timestamp": "2025-12-26T05:31:12.141972+00:00",
        "meta_object_name": "CYGFM01",
        "meta_object_id": "2016-078D",
        "meta_epoch": "2025-12-25T22:45:08.972064",
        "meta_mean_motion": 15.4872777,
        "meta_eccentricity": 0.00102731,
        "meta_inclination": 34.9435,
        "meta_ra_of_asc_node": 323.0767,
        "meta_arg_of_pericenter": 288.737,
        "meta_mean_anomaly": 71.2237,
        "meta_ephemeris_type": 0,
        "meta_classification_type": "U",
        "meta_norad_cat_id": 41887,
        "meta_element_set_no": 999,
        "meta_rev_at_epoch": 50175,
        "meta_bstar": 0.00037930981,
        "meta_mean_motion_dot": 0.00021016,
        "meta_mean_motion_ddot": 0,
        "tle_line1": "1 41887U 16078D   25359.94802051  .00021016  00000+0  37931-3 0  9998",
        "tle_line2": "2 41887  34.9435 323.0767 0010273 288.7370  71.2237 15.48727770501752"
      },
      "geometry": {
        "type": "Point",
        "coordinates": [
          101.6732252415656,
          23.973851514278355
        ]
      }
    },
    {
      "type": "Feature",
      "properties": {
        "norad_id": 41888,
        "name": "CYGFM08",
        "group": "weather",
        "lat": -30.58646896861972,
        "lon": -178.10790529681807,
        "alt_km": 416.33415532334675,
        "timestamp": "2025-12-26T05:31:12.141984+00:00",
        "meta_object_name": "CYGFM08",
        "meta_object_id": "2016-078E",
        "meta_epoch": "2025-12-25T22:17:38.967936",
        "meta_mean_motion": 15.49968306,
        "meta_eccentricity": 0.00113205,
        "meta_inclination": 34.9459,
        "meta_ra_of_asc_node": 306.0381,
        "meta_arg_of_pericenter": 312.4936,
        "meta_mean_anomaly": 47.4829,
        "meta_ephemeris_type": 0,
        "meta_classification_type": "U",
        "meta_norad_cat_id": 41888,
        "meta_element_set_no": 999,
        "meta_rev_at_epoch": 50198,
        "meta_bstar": 0.00037702572,
        "meta_mean_motion_dot": 0.00021839,
        "meta_mean_motion_ddot": 0,
        "tle_line1": "1 41888U 16078E   25359.92892324  .00021839  00000+0  37703-3 0  9999",
        "tle_line2": "2 41888  34.9459 306.0381 0011320 312.4936  47.4829 15.49968306501989"
      },
      "geometry": {
        "type": "Point",
        "coordinates": [
          -178.10790529681807,
          -30.58646896861972
        ]
      }
    }
  ]
}